#cP2015  5 18  0  0  0.00000000      96 ORBIT IGb08 HLM  IGS
## 1845  86400.00000000   900.00000000 57160 0.0000000000000
+   32   G01G02G03G04G05G06G07G08G09G10G11G12G13G14G15G16G17
+        G18G19G20G21G22G23G24G25G26G27G28G29G30G31G32  0  0
+          0  0  0  0  0  0  0  0  0  0  0  0  0  0  0  0  0
+          0  0  0  0  0  0  0  0  0  0  0  0  0  0  0  0  0
+          0  0  0  0  0  0  0  0  0  0  0  0  0  0  0  0  0
++         2  3  2  2  2  2  2  0  4  2  2  2  2  2  2  2  2
++         3  3  3  2  2  2  2  2  3  2  2  3  2  2  2  0  0
++         0  0  0  0  0  0  0  0  0  0  0  0  0  0  0  0  0
++         0  0  0  0  0  0  0  0  0  0  0  0  0  0  0  0  0
++         0  0  0  0  0  0  0  0  0  0  0  0  0  0  0  0  0
%c G  cc GPS ccc cccc cccc cccc cccc ccccc ccccc ccccc ccccc
%c cc cc ccc ccc cccc cccc cccc cccc ccccc ccccc ccccc ccccc
%f  1.2500000  1.025000000  0.00000000000  0.000000000000000
%f  0.0000000  0.000000000  0.00000000000  0.000000000000000
%i    0    0    0    0      0      0      0      0         0
%i    0    0    0    0      0      0      0      0         0
/* RAPID ORBIT COMBINATION FROM WEIGHTED AVERAGE OF:        
/* cod emr esa gfz jpl ngs sio usn                          
/* REFERENCED TO IGS TIME (IGST) AND TO WEIGHTED MEAN POLE: 
/* PCV:IGS08_1844 OL/AL:FES2004  NONE     Y  ORB:CMB CLK:CMB
*  2015  5 18  0  0  0.00000000
PG01  14736.411108  -3607.723988  21750.266829     -5.460439  4  6  4  88       
PG02 -14751.266468 -18353.014575 -12342.902232    566.464600 10  8  7 123       
PG03  21751.583036 -11604.741539   9947.486022    329.631692 10  4  3 124       
PG04  16571.755106   7091.147720  19268.134634    -15.170089  8  6  5 102       
PG05 -15134.711604  -6261.331360 -20986.998720   -240.363679  7  7  7 112       
PG06  -6371.432330 -25784.885439    509.236210    163.039334  8  7  7 108       
PG07   8241.229979 -17817.425463 -17609.913918    462.802941  7  8  8 141       
PG08   -940.086871  18459.836673 -19169.828827 999999.999999
PG09  16087.423926  -9417.343501 -18933.096489   -157.575899 15  8  4 109       
PG10   2512.705525 -20057.602407 -17397.394552   -175.301004  2  6  6  95       
PG11  18722.740550   1311.248605  18308.781215   -578.907458  7  5  6  58       
PG12 -21697.715390   8432.736337  12477.674406    293.802616  8  5 10 139       
PG13 -22423.937429 -13033.375867  -5554.873302   -115.342811  7  9  9 130       
PG14   3620.751864  16519.676938  20756.989095     62.760924  8  7  7 120       
PG15 -26259.765556  -2936.229733   3958.683020   -249.808595  7  8  1 113       
PG16  13947.003183   6764.454444 -21699.751793   -128.143227  9  9  7 116       
PG17  -3328.638058 -16211.930953  21113.287071   -171.673622  6  6  7 104       
PG18 -13245.100104  21715.816257   7576.057551    402.247844  7  8  7 131       
PG19  25447.313701   8143.778349   2117.786459   -510.729654 10  6  5 132       
PG20 -16825.134798  -4060.718763 -20371.858928    320.913048  7  8  9 125       
PG21  -6004.457893  20293.968236 -15121.362257   -446.989953  8  7  7 137       
PG22  -3173.060198  20845.828125  16280.439836    351.412972  8  7  7 111       
PG23  23871.375904  -2046.110026 -11776.752455   -109.012907  8  8  5 135       
PG24 -15645.236273    518.838440  21432.594379    -48.442142  4  8  7 130       
PG25 -19362.635915  18007.240894   1088.340056    -30.241233  8  4  9  69       
PG26   5207.513669  15467.338891 -20960.769870     29.896353  8 11  8 132       
PG27  21929.303515  12273.778434  -8793.290559     72.666706 10  3  7 127       
PG28   8948.207117 -20496.777268  14875.789677    440.525639  7  7  4  86       
PG29 -18107.762400   6917.410077 -18112.431228    611.107497 10 10  5 112       
PG30   1897.278761 -24913.487481  -8928.873237    -58.108734  7  6  9 104       
PG31   7619.704169  25074.467584  -2860.494542    315.603330  7  8  6 130       
PG32  18212.718383   2567.607043  18947.670979   -148.644083 10  6  9  94       
*  2015  5 18  0 15  0.00000000
PG01  15414.203154  -1213.978381  21562.112595     -5.460035  4  5  5  77       
PG02 -14928.198821 -19680.117536  -9964.876043    566.466801  9  8  7 117       
PG03  21031.290358 -10529.526557  12391.819531    329.640437 10  3  2 122       
PG04  17081.817393   9222.831883  17918.904800    -15.171141  8  6  5  82       
PG05 -13508.055503  -8055.339860 -21464.148577   -240.359615  7  7  7 114       
PG06  -6067.382667 -25644.788404   3354.965014    163.047527  7  7  6 108       
PG07   8931.017146 -15794.207599 -19161.368508    462.805013  7  8  8 144       
PG08  -2477.587938  19848.437162 -17540.216573 999999.999999
PG09  18074.709462  -8798.825071 -17374.756942   -157.581509 14  7  7 126       
PG10   3947.737008 -21231.852149 -15564.816788   -175.301539  3  6  6 104       
PG11  19795.570617   3169.951178  16952.999601   -578.910314  8  5  6  58       
PG12 -20662.319065   7232.399518  14779.379576    293.805283  9  4 10 138       
PG13 -21621.554761 -12967.417571  -8297.607565   -115.345960  7  9  9 108       
PG14   1353.591151  15842.982991  21536.759884     62.758339  7  7  6 124       
PG15 -26499.942802  -3292.974426   1196.239674   -249.810557  8  8  3 108       
PG16  12130.378103   8455.043060 -22162.160195   -128.139933  9  9  6 117       
PG17  -1024.615481 -15588.157417  21800.817613   -171.675385  5  6  6 103       
PG18 -13959.046644  21967.330877   4899.675066    402.250347  8  8  7 129       
PG19  25477.782858   8359.807328   -726.481656   -510.731043 11  6  6 134       
PG20 -15397.692865  -5916.568215 -21032.746732    320.915832  6  8  9 123       
PG21  -6833.591570  18485.248387 -16932.920042   -446.992765  7  7  7 135       
PG22  -4532.176551  21949.802146  14350.788758    351.416494  7  7  7 107       
PG23  24997.787707  -1536.349982  -9328.987690   -109.015352  9  8  5 125       
PG24 -16320.051275  -1814.443443  20865.109389    -48.443181  5  8  6 133       
PG25 -19312.535867  17639.227829   3969.274485    -30.244694  8  4  9  86       
PG26   3533.570730  17108.930606 -20011.889082     29.897697  8 11  7 123       
PG27  20768.639840  12204.148236 -11334.069211     72.669071 10  3  7 121       
PG28  10125.291447 -21397.226095  12571.285762    440.527990  5  7  5  87       
PG29 -19958.694055   6218.260528 -16331.480626    611.109288 10  9  6 116       
PG30   2379.446296 -23823.819786 -11443.032709    -58.103978  7  6  9 122       
PG31   7430.938454  25306.148184     37.573646    315.601811  8  7  6 122       
PG32  16623.909632   4179.671916  20132.871997   -148.635468 10  6  8  78       
*  2015  5 18  0 30  0.00000000
PG01  16201.304785   1099.260709  21001.801852     -5.459549  5  5  6  85       
PG02 -15070.800572 -20734.659498  -7416.754901    566.468971  9  8  7 120       
PG03  20197.046348  -9216.503280  14623.472183    329.649180 10  2  3 123       
PG04  17633.922784  11162.951350  16256.328779    -15.172460  8  6  5  97       
PG05 -11950.873175  -9955.237290 -21574.012978   -240.355387  7  6  7 108       
PG06  -5647.872272 -25220.901412   6142.983327    163.055770  7  7  6 105       
PG07   9775.451543 -13662.322269 -20376.669487    462.807312  8  8  7 140       
PG08  -3805.096420  21170.407899 -15610.254151 999999.999999
PG09  19901.000213  -8317.379281 -15517.776320   -157.587055 14  7  8 114       
PG10   5184.137629 -22309.639547 -13466.218606   -175.303000  4  6  5 100       
PG11  20832.883371   4847.103400  15295.191850   -578.912467  8  4  6  85       
PG12 -19527.282158   5793.824828  16822.492770    293.808389  9  3  9 140       
PG13 -20527.320401 -12857.997594 -10897.257216   -115.349069  7  8  8 133       
PG14  -1012.493237  15272.391544  21954.597927     62.755934  7  7  6 125       
PG15 -26449.463609  -3595.752110  -1586.410099   -249.812403  9  8  5 118       
PG16  10389.395930  10271.477123 -22246.727273   -128.136232  9  9  6 122       
PG17   1366.580332 -15079.198164  22123.996499   -171.676840  4  5  6  96       
PG18 -14470.920968  22012.119620   2138.288580    402.252977  9  8  7 131       
PG19  25214.184223   8487.270403  -3558.629317   -510.731859 11  6  6 134       
PG20 -14027.357415  -7881.738513 -21338.543031    320.919522  7  7  8 122       
PG21  -7813.432286  16534.829736 -18433.286812   -446.995638  6  7  6 136       
PG22  -5695.638425  22938.046095  12175.662989    351.420322  5  7  7 120       
PG23  25868.602579  -1138.460842  -6723.604601   -109.017419 10  8  6 122       
PG24 -17082.602509  -4029.784059  19938.251495    -48.444585  6  7  6 131       
PG25 -19073.590949  17020.504351   6781.069831    -30.248140  8  4  9  84       
PG26   2028.971762  18738.415527 -18718.827102     29.899107  8 10  7 124       
PG27  19333.728208  12148.774706 -13681.137735     72.671404 10  3  7 114       
PG28  11066.129852 -22170.127296  10056.281500    440.530785  5  6  5  58       
PG29 -21632.338666   5669.980459 -14268.459392    611.111553 10  9  6 115       
PG30   2989.575777 -22496.807976 -13759.727564    -58.099137  7  6  8 128       
PG31   7153.713717  25231.976854   2934.994661    315.601015  8  7  5 130       
PG32  15038.333251   5945.402279  20966.981715   -148.626831  9  5  8  67       
EOF
